[{"OBJECT_NAME":"STARLINK-5333","OBJECT_ID":"2023-065E","EPOCH":"2025-10-02T10:15:04.955616","MEAN_MOTION":15.02535212,"ECCENTRICITY":0.000141,"INCLINATION":43.0048,"RA_OF_ASC_NODE":311.6275,"ARG_OF_PERICENTER":266.4425,"MEAN_ANOMALY":93.6256,"EPHEMERIS_TYPE":0,"CLASSIFICATION_TYPE":"U","NORAD_CAT_ID":56507,"ELEMENT_SET_NO":999,"REV_AT_EPOCH":13326,"BSTAR":8.9897e-5,"MEAN_MOTION_DOT":1.011e-5,"MEAN_MOTION_DDOT":0},{"OBJECT_NAME":"STARLINK-5335","OBJECT_ID":"2023-065F","EPOCH":"2025-10-02T11:38:32.724672","MEAN_MOTION":15.02504576,"ECCENTRICITY":0.0001352,"INCLINATION":43.0022,"RA_OF_ASC_NODE":350.2444,"ARG_OF_PERICENTER":270.5655,"MEAN_ANOMALY":89.5033,"EPHEMERIS_TYPE":0,"CLASSIFICATION_TYPE":"U","NORAD_CAT_ID":56508,"ELEMENT_SET_NO":999,"REV_AT_EPOCH":13282,"BSTAR":0.00026389,"MEAN_MOTION_DOT":3.36e-5,"MEAN_MOTION_DDOT":0},{"OBJECT_NAME":"STARLINK-5334","OBJECT_ID":"2023-065G","EPOCH":"2025-10-03T06:34:28.554240","MEAN_MOTION":15.02533744,"ECCENTRICITY":0.00019093,"INCLINATION":43.0046,"RA_OF_ASC_NODE":345.8421,"ARG_OF_PERICENTER":273.1344,"MEAN_ANOMALY":86.928,"EPHEMERIS_TYPE":0,"CLASSIFICATION_TYPE":"U","NORAD_CAT_ID":56509,"ELEMENT_SET_NO":999,"REV_AT_EPOCH":13294,"BSTAR":4.911924e-6,"MEAN_MOTION_DOT":-1.37e-6,"MEAN_MOTION_DDOT":0},{"OBJECT_NAME":"STARLINK-5339","OBJECT_ID":"2023-065H","EPOCH":"2025-10-03T05:08:19.605120","MEAN_MOTION":15.0254052,"ECCENTRICITY":0.00011613,"INCLINATION":43.0047,"RA_OF_ASC_NODE":346.2543,"ARG_OF_PERICENTER":252.8489,"MEAN_ANOMALY":107.2226,"EPHEMERIS_TYPE":0,"CLASSIFICATION_TYPE":"U","NORAD_CAT_ID":56510,"ELEMENT_SET_NO":999,"REV_AT_EPOCH":13293,"BSTAR":6.6004308e-5,"MEAN_MOTION_DOT":6.88e-6,"MEAN_MOTION_DDOT":0},{"OBJECT_NAME":"STARLINK-5351","OBJECT_ID":"2023-065J","EPOCH":"2025-10-03T06:29:41.106624","MEAN_MOTION":15.02544926,"ECCENTRICITY":0.00012856,"INCLINATION":43.0059,"RA_OF_ASC_NODE":345.8119,"ARG_OF_PERICENTER":273.2273,"MEAN_ANOMALY":86.8422,"EPHEMERIS_TYPE":0,"CLASSIFICATION_TYPE":"U","NORAD_CAT_ID":56511,"ELEMENT_SET_NO":999,"REV_AT_EPOCH":13294,"BSTAR":3.198049e-5,"MEAN_MOTION_DOT":2.28e-6,"MEAN_MOTION_DDOT":0},{"OBJECT_NAME":"STARLINK-5349","OBJECT_ID":"2023-065K","EPOCH":"2025-10-03T05:03:32.670720","MEAN_MOTION":15.02526244,"ECCENTRICITY":0.00014857,"INCLINATION":43.0071,"RA_OF_ASC_NODE":346.2209,"ARG_OF_PERICENTER":281.3177,"MEAN_ANOMALY":78.7499,"EPHEMERIS_TYPE":0,"CLASSIFICATION_TYPE":"U","NORAD_CAT_ID":56512,"ELEMENT_SET_NO":999,"REV_AT_EPOCH":13293,"BSTAR":1.8810249e-5,"MEAN_MOTION_DOT":5.0e-7,"MEAN_MOTION_DDOT":0},{"OBJECT_NAME":"STARLINK-5329","OBJECT_ID":"2023-065L","EPOCH":"2025-10-03T04:52:21.959616","MEAN_MOTION":15.02509626,"ECCENTRICITY":0.00012935,"INCLINATION":43.004,"RA_OF_ASC_NODE":346.1651,"ARG_OF_PERICENTER":266.1338,"MEAN_ANOMALY":93.9356,"EPHEMERIS_TYPE":0,"CLASSIFICATION_TYPE":"U","NORAD_CAT_ID":56513,"ELEMENT_SET_NO":999,"REV_AT_EPOCH":13293,"BSTAR":0.00040174003,"MEAN_MOTION_DOT":5.223e-5,"MEAN_MOTION_DDOT":0},{"OBJECT_NAME":"STARLINK-5348","OBJECT_ID":"2023-065N","EPOCH":"2025-10-03T04:47:33.370656","MEAN_MOTION":15.02539488,"ECCENTRICITY":0.00015832,"INCLINATION":43.002,"RA_OF_ASC_NODE":346.1409,"ARG_OF_PERICENTER":268.694,"MEAN_ANOMALY":91.3721,"EPHEMERIS_TYPE":0,"CLASSIFICATION_TYPE":"U","NORAD_CAT_ID":56515,"ELEMENT_SET_NO":999,"REV_AT_EPOCH":13293,"BSTAR":0.00043395592,"MEAN_MOTION_DOT":5.664e-5,"MEAN_MOTION_DDOT":0},{"OBJECT_NAME":"STARLINK-5342","OBJECT_ID":"2023-065P","EPOCH":"2025-10-03T04:55:33.297600","MEAN_MOTION":15.02512079,"ECCENTRICITY":0.00037616,"INCLINATION":43.0128,"RA_OF_ASC_NODE":346.1824,"ARG_OF_PERICENTER":268.7475,"MEAN_ANOMALY":91.2936,"EPHEMERIS_TYPE":0,"CLASSIFICATION_TYPE":"U","NORAD_CAT_ID":56516,"ELEMENT_SET_NO":999,"REV_AT_EPOCH":13293,"BSTAR":0.00020552016,"MEAN_MOTION_DOT":2.571e-5,"MEAN_MOTION_DDOT":0},{"OBJECT_NAME":"STARLINK-5345","OBJECT_ID":"2023-065Q","EPOCH":"2025-10-03T04:34:45.999552","MEAN_MOTION":15.02533775,"ECCENTRICITY":0.00010818,"INCLINATION":43.0046,"RA_OF_ASC_NODE":346.0753,"ARG_OF_PERICENTER":266.4268,"MEAN_ANOMALY":93.6451,"EPHEMERIS_TYPE":0,"CLASSIFICATION_TYPE":"U","NORAD_CAT_ID":56517,"ELEMENT_SET_NO":999,"REV_AT_EPOCH":13293,"BSTAR":0.00011089673,"MEAN_MOTION_DOT":1.295e-5,"MEAN_MOTION_DDOT":0},{"OBJECT_NAME":"STARLINK-5346","OBJECT_ID":"2023-065R","EPOCH":"2025-10-03T06:18:29.647296","MEAN_MOTION":15.02532421,"ECCENTRICITY":0.00010545,"INCLINATION":43.0044,"RA_OF_ASC_NODE":345.7538,"ARG_OF_PERICENTER":270.8213,"MEAN_ANOMALY":89.2509,"EPHEMERIS_TYPE":0,"CLASSIFICATION_TYPE":"U","NORAD_CAT_ID":56518,"ELEMENT_SET_NO":999,"REV_AT_EPOCH":13294,"BSTAR":3.5909441e-5,"MEAN_MOTION_DOT":2.81e-6,"MEAN_MOTION_DDOT":0},{"OBJECT_NAME":"STARLINK-6313","OBJECT_ID":"2023-065S","EPOCH":"2025-10-03T04:28:20.271936","MEAN_MOTION":15.02560582,"ECCENTRICITY":0.00011354,"INCLINATION":43.0019,"RA_OF_ASC_NODE":346.038,"ARG_OF_PERICENTER":284.8396,"MEAN_ANOMALY":75.2321,"EPHEMERIS_TYPE":0,"CLASSIFICATION_TYPE":"U","NORAD_CAT_ID":56519,"ELEMENT_SET_NO":999,"REV_AT_EPOCH":13293,"BSTAR":8.4068014e-5,"MEAN_MOTION_DOT":9.33e-6,"MEAN_MOTION_DDOT":0},{"OBJECT_NAME":"STARLINK-6344","OBJECT_ID":"2023-065T","EPOCH":"2025-10-03T04:37:58.135008","MEAN_MOTION":15.02522574,"ECCENTRICITY":0.0001721,"INCLINATION":43.0042,"RA_OF_ASC_NODE":346.0907,"ARG_OF_PERICENTER":254.6638,"MEAN_ANOMALY":105.4014,"EPHEMERIS_TYPE":0,"CLASSIFICATION_TYPE":"U","NORAD_CAT_ID":56520,"ELEMENT_SET_NO":999,"REV_AT_EPOCH":13293,"BSTAR":0.00030059729,"MEAN_MOTION_DOT":3.858e-5,"MEAN_MOTION_DDOT":0},{"OBJECT_NAME":"STARLINK-6333","OBJECT_ID":"2023-065U","EPOCH":"2025-10-02T11:57:32.630976","MEAN_MOTION":15.0254165,"ECCENTRICITY":0.0001191,"INCLINATION":43.005,"RA_OF_ASC_NODE":349.4783,"ARG_OF_PERICENTER":266.3644,"MEAN_ANOMALY":93.7062,"EPHEMERIS_TYPE":0,"CLASSIFICATION_TYPE":"U","NORAD_CAT_ID":56521,"ELEMENT_SET_NO":999,"REV_AT_EPOCH":13283,"BSTAR":-6.3295e-5,"MEAN_MOTION_DOT":-1.059e-5,"MEAN_MOTION_DDOT":0},{"OBJECT_NAME":"STARLINK-6327","OBJECT_ID":"2023-065V","EPOCH":"2025-10-03T04:29:59.584416","MEAN_MOTION":15.02513004,"ECCENTRICITY":0.00016644,"INCLINATION":43.0056,"RA_OF_ASC_NODE":346.047,"ARG_OF_PERICENTER":280.2921,"MEAN_ANOMALY":79.7734,"EPHEMERIS_TYPE":0,"CLASSIFICATION_TYPE":"U","NORAD_CAT_ID":56522,"ELEMENT_SET_NO":999,"REV_AT_EPOCH":13293,"BSTAR":-7.8326526e-5,"MEAN_MOTION_DOT":-1.261e-5,"MEAN_MOTION_DDOT":0},{"OBJECT_NAME":"STARLINK-6328","OBJECT_ID":"2023-065W","EPOCH":"2025-10-03T05:36:55.675008","MEAN_MOTION":15.02539074,"ECCENTRICITY":9.865e-5,"INCLINATION":43.003,"RA_OF_ASC_NODE":345.5349,"ARG_OF_PERICENTER":251.2847,"MEAN_ANOMALY":108.7888,"EPHEMERIS_TYPE":0,"CLASSIFICATION_TYPE":"U","NORAD_CAT_ID":56523,"ELEMENT_SET_NO":999,"REV_AT_EPOCH":13294,"BSTAR":0.00014823887,"MEAN_MOTION_DOT":1.8e-5,"MEAN_MOTION_DDOT":0}]
