STARLINK-5333           
1 56507U 23065E   25275.42714069  .00001011  00000+0  89897-4 0  9990
2 56507  43.0048 311.6275 0001410 266.4425  93.6256 15.02535212133266
STARLINK-5335           
1 56508U 23065F   25275.48510098  .00003360  00000+0  26389-3 0  9998
2 56508  43.0022 350.2444 0001352 270.5655  89.5033 15.02504576132829
STARLINK-5334           
1 56509U 23065G   25276.27394160 -.00000137  00000+0  49119-5 0  9995
2 56509  43.0046 345.8421 0001909 273.1344  86.9280 15.02533744132940
STARLINK-5339           
1 56510U 23065H   25276.21411580  .00000688  00000+0  66004-4 0  9998
2 56510  43.0047 346.2543 0001161 252.8489 107.2226 15.02540520132933
STARLINK-5351           
1 56511U 23065J   25276.27061466  .00000228  00000+0  31980-4 0  9994
2 56511  43.0059 345.8119 0001285 273.2273  86.8422 15.02544926132941
STARLINK-5349           
1 56512U 23065K   25276.21079480  .00000050  00000+0  18810-4 0  9994
2 56512  43.0071 346.2209 0001485 281.3177  78.7499 15.02526244132932
STARLINK-5329           
1 56513U 23065L   25276.20303194  .00005223  00000+0  40174-3 0  9990
2 56513  43.0040 346.1651 0001293 266.1338  93.9356 15.02509626132932
STARLINK-5348           
1 56515U 23065N   25276.19969179  .00005664  00000+0  43396-3 0  9999
2 56515  43.0020 346.1409 0001583 268.6940  91.3721 15.02539488132938
STARLINK-5342           
1 56516U 23065P   25276.20524650  .00002571  00000+0  20552-3 0  9996
2 56516  43.0128 346.1824 0003761 268.7475  91.2936 15.02512079132937
STARLINK-5345           
1 56517U 23065Q   25276.19081018  .00001295  00000+0  11090-3 0  9990
2 56517  43.0046 346.0753 0001081 266.4268  93.6451 15.02533775132939
STARLINK-5346           
1 56518U 23065R   25276.26284314  .00000281  00000+0  35909-4 0  9993
2 56518  43.0044 345.7538 0001054 270.8213  89.2509 15.02532421132947
STARLINK-6313           
1 56519U 23065S   25276.18634574  .00000933  00000+0  84068-4 0  9996
2 56519  43.0019 346.0380 0001135 284.8396  75.2321 15.02560582132931
STARLINK-6344           
1 56520U 23065T   25276.19303397  .00003858  00000+0  30060-3 0  9996
2 56520  43.0042 346.0907 0001721 254.6638 105.4014 15.02522574132933
STARLINK-6333           
1 56521U 23065U   25275.49829434 -.00001059  00000+0 -63295-4 0  9994
2 56521  43.0050 349.4783 0001191 266.3644  93.7062 15.02541650132837
STARLINK-6327           
1 56522U 23065V   25276.18749519 -.00001261  00000+0 -78327-4 0  9994
2 56522  43.0056 346.0470 0001664 280.2921  79.7734 15.02513004132931
STARLINK-6328           
1 56523U 23065W   25276.23397772  .00001800  00000+0  14824-3 0  9999
2 56523  43.0030 345.5349 0000986 251.2847 108.7888 15.02539074132943
